[{"OBJECT_NAME":"STARLINK-34360","OBJECT_ID":"2025-123P","EPOCH":"2026-03-09T17:48:44.453088","MEAN_MOTION":14.98336219,"ECCENTRICITY":0.00033342,"INCLINATION":70.0018,"RA_OF_ASC_NODE":194.4297,"ARG_OF_PERICENTER":270.6569,"MEAN_ANOMALY":89.4208,"EPHEMERIS_TYPE":0,"CLASSIFICATION_TYPE":"U","NORAD_CAT_ID":64304,"ELEMENT_SET_NO":999,"REV_AT_EPOCH":4162,"BSTAR":0.00053519531,"MEAN_MOTION_DOT":6.3e-5,"MEAN_MOTION_DDOT":0},{"OBJECT_NAME":"DELTA 1 DEB","OBJECT_ID":"1978-026BU","EPOCH":"2026-03-09T11:22:20.910432","MEAN_MOTION":14.96481719,"ECCENTRICITY":0.00669454,"INCLINATION":98.7967,"RA_OF_ASC_NODE":254.5698,"ARG_OF_PERICENTER":166.8222,"MEAN_ANOMALY":193.4765,"EPHEMERIS_TYPE":0,"CLASSIFICATION_TYPE":"U","NORAD_CAT_ID":12227,"ELEMENT_SET_NO":999,"REV_AT_EPOCH":38498,"BSTAR":0.0006297912,"MEAN_MOTION_DOT":7.412e-5,"MEAN_MOTION_DDOT":0}]
